{
  "norad_id": 51983,
  "name": "STARLINK-3655",
  "history": [
    {
      "epoch": "2026-03-28T21:18:00.437184Z",
      "apogee_km": 540.7505277304144,
      "perigee_km": 538.7031167535843,
      "latitude_deg": 3.8047311563135504e-05,
      "longitude_deg": 167.14240586341572,
      "height_km": 540.5768148986236,
      "semi_major_axis_km": 6917.8638222419995,
      "eccentricity": 0.00014798,
      "inclination_deg": 53.2175,
      "raan_deg": 312.9457,
      "arg_perigee_deg": 87.4494,
      "mean_anomaly_deg": 272.6668,
      "mean_motion_rev_day": 15.0884542
    }
  ]
}